{
  "type": "FeatureCollection",
  "features": [
    {
      "type": "Feature",
      "properties": {
        "norad_id": 66899,
        "name": "STARLINK-36064",
        "group": "last-30-days",
        "lat": -40.416431731656566,
        "lon": -141.15192840513123,
        "alt_km": 419.78335899733247,
        "timestamp": "2025-12-27T18:38:02.205173+00:00",
        "meta_object_name": "STARLINK-36064",
        "meta_object_id": "2025-283X",
        "meta_epoch": "2025-12-27T12:00:02.000160",
        "meta_mean_motion": 15.51824398,
        "meta_eccentricity": 0.0001354,
        "meta_inclination": 53.1599,
        "meta_ra_of_asc_node": 0.4986,
        "meta_arg_of_pericenter": 69.0059,
        "meta_mean_anomaly": 60.6391,
        "meta_ephemeris_type": 0,
        "meta_classification_type": "U",
        "meta_norad_cat_id": 66899,
        "meta_element_set_no": 999,
        "meta_rev_at_epoch": 474,
        "meta_bstar": -0.033107,
        "meta_mean_motion_dot": -0.01789024,
        "meta_mean_motion_ddot": 0,
        "tle_line1": "1 66899U 25283X   25361.50002315 -.01789024  00000+0 -33107-1 0  9998",
        "tle_line2": "2 66899  53.1599   0.4986 0001354  69.0059  60.6391 15.51824398  4747"
      },
      "geometry": {
        "type": "Point",
        "coordinates": [
          -141.15192840513123,
          -40.416431731656566
        ]
      }
    },
    {
      "type": "Feature",
      "properties": {
        "norad_id": 66900,
        "name": "STARLINK-36074",
        "group": "last-30-days",
        "lat": -41.57876845109212,
        "lon": -139.13847205420856,
        "alt_km": 419.7676836573273,
        "timestamp": "2025-12-27T18:38:02.205186+00:00",
        "meta_object_name": "STARLINK-36074",
        "meta_object_id": "2025-283Y",
        "meta_epoch": "2025-12-27T12:00:02.000160",
        "meta_mean_motion": 15.51820593,
        "meta_eccentricity": 0.0001265,
        "meta_inclination": 53.16,
        "meta_ra_of_asc_node": 0.4945,
        "meta_arg_of_pericenter": 73.588,
        "meta_mean_anomaly": 57.9779,
        "meta_ephemeris_type": 0,
        "meta_classification_type": "U",
        "meta_norad_cat_id": 66900,
        "meta_element_set_no": 999,
        "meta_rev_at_epoch": 480,
        "meta_bstar": -0.033047,
        "meta_mean_motion_dot": -0.01785868,
        "meta_mean_motion_ddot": 0,
        "tle_line1": "1 66900U 25283Y   25361.50002315 -.01785868  00000+0 -33047-1 0  9996",
        "tle_line2": "2 66900  53.1600   0.4945 0001265  73.5880  57.9779 15.51820593  4800"
      },
      "geometry": {
        "type": "Point",
        "coordinates": [
          -139.13847205420856,
          -41.57876845109212
        ]
      }
    },
    {
      "type": "Feature",
      "properties": {
        "norad_id": 66901,
        "name": "STARLINK-36043",
        "group": "last-30-days",
        "lat": -42.70312390471034,
        "lon": -137.0553361200533,
        "alt_km": 419.8133686475567,
        "timestamp": "2025-12-27T18:38:02.205195+00:00",
        "meta_object_name": "STARLINK-36043",
        "meta_object_id": "2025-283Z",
        "meta_epoch": "2025-12-27T12:00:02.000160",
        "meta_mean_motion": 15.51829138,
        "meta_eccentricity": 0.0001257,
        "meta_inclination": 53.16,
        "meta_ra_of_asc_node": 0.4899,
        "meta_arg_of_pericenter": 73.5666,
        "meta_mean_anomaly": 59.9109,
        "meta_ephemeris_type": 0,
        "meta_classification_type": "U",
        "meta_norad_cat_id": 66901,
        "meta_element_set_no": 999,
        "meta_rev_at_epoch": 480,
        "meta_bstar": -0.03325,
        "meta_mean_motion_dot": -0.01796075,
        "meta_mean_motion_ddot": 0,
        "tle_line1": "1 66901U 25283Z   25361.50002315 -.01796075  00000+0 -33250-1 0  9995",
        "tle_line2": "2 66901  53.1600   0.4899 0001257  73.5666  59.9109 15.51829138  4805"
      },
      "geometry": {
        "type": "Point",
        "coordinates": [
          -137.0553361200533,
          -42.70312390471034
        ]
      }
    },
    {
      "type": "Feature",
      "properties": {
        "norad_id": 66902,
        "name": "STARLINK-35983",
        "group": "last-30-days",
        "lat": -43.78900180267558,
        "lon": -134.89394292380675,
        "alt_km": 419.90856674577753,
        "timestamp": "2025-12-27T18:38:02.205205+00:00",
        "meta_object_name": "STARLINK-35983",
        "meta_object_id": "2025-283AA",
        "meta_epoch": "2025-12-27T12:00:02.000160",
        "meta_mean_motion": 15.51828157,
        "meta_eccentricity": 0.0001287,
        "meta_inclination": 53.1599,
        "meta_ra_of_asc_node": 0.486,
        "meta_arg_of_pericenter": 71.4242,
        "meta_mean_anomaly": 63.9752,
        "meta_ephemeris_type": 0,
        "meta_classification_type": "U",
        "meta_norad_cat_id": 66902,
        "meta_element_set_no": 999,
        "meta_rev_at_epoch": 480,
        "meta_bstar": -0.033387,
        "meta_mean_motion_dot": -0.01802622,
        "meta_mean_motion_ddot": 0,
        "tle_line1": "1 66902U 25283AA  25361.50002315 -.01802622  00000+0 -33387-1 0  9993",
        "tle_line2": "2 66902  53.1599   0.4860 0001287  71.4242  63.9752 15.51828157  4800"
      },
      "geometry": {
        "type": "Point",
        "coordinates": [
          -134.89394292380675,
          -43.78900180267558
        ]
      }
    },
    {
      "type": "Feature",
      "properties": {
        "norad_id": 66903,
        "name": "STARLINK-36077",
        "group": "last-30-days",
        "lat": -44.830615324221476,
        "lon": -132.65788209919222,
        "alt_km": 419.97277132209365,
        "timestamp": "2025-12-27T18:38:02.205215+00:00",
        "meta_object_name": "STARLINK-36077",
        "meta_object_id": "2025-283AB",
        "meta_epoch": "2025-12-27T12:00:02.000160",
        "meta_mean_motion": 15.51829043,
        "meta_eccentricity": 0.0001299,
        "meta_inclination": 53.1599,
        "meta_ra_of_asc_node": 0.4827,
        "meta_arg_of_pericenter": 68.9955,
        "meta_mean_anomaly": 68.3193,
        "meta_ephemeris_type": 0,
        "meta_classification_type": "U",
        "meta_norad_cat_id": 66903,
        "meta_element_set_no": 999,
        "meta_rev_at_epoch": 480,
        "meta_bstar": -0.033448,
        "meta_mean_motion_dot": -0.01805581,
        "meta_mean_motion_ddot": 0,
        "tle_line1": "1 66903U 25283AB  25361.50002315 -.01805581  00000+0 -33448-1 0  9999",
        "tle_line2": "2 66903  53.1599   0.4827 0001299  68.9955  68.3193 15.51829043  4802"
      },
      "geometry": {
        "type": "Point",
        "coordinates": [
          -132.65788209919222,
          -44.830615324221476
        ]
      }
    },
    {
      "type": "Feature",
      "properties": {
        "norad_id": 66904,
        "name": "STARLINK-36059",
        "group": "last-30-days",
        "lat": -45.82606005016394,
        "lon": -130.3450240092679,
        "alt_km": 420.02446002545275,
        "timestamp": "2025-12-27T18:38:02.205225+00:00",
        "meta_object_name": "STARLINK-36059",
        "meta_object_id": "2025-283AC",
        "meta_epoch": "2025-12-27T12:00:02.000160",
        "meta_mean_motion": 15.51825264,
        "meta_eccentricity": 0.0001325,
        "meta_inclination": 53.1599,
        "meta_ra_of_asc_node": 0.4776,
        "meta_arg_of_pericenter": 65.1818,
        "meta_mean_anomaly": 74.0467,
        "meta_ephemeris_type": 0,
        "meta_classification_type": "U",
        "meta_norad_cat_id": 66904,
        "meta_element_set_no": 999,
        "meta_rev_at_epoch": 480,
        "meta_bstar": -0.033196,
        "meta_mean_motion_dot": -0.01793293,
        "meta_mean_motion_ddot": 0,
        "tle_line1": "1 66904U 25283AC  25361.50002315 -.01793293  00000+0 -33196-1 0  9996",
        "tle_line2": "2 66904  53.1599   0.4776 0001325  65.1818  74.0467 15.51825264  4802"
      },
      "geometry": {
        "type": "Point",
        "coordinates": [
          -130.3450240092679,
          -45.82606005016394
        ]
      }
    },
    {
      "type": "Feature",
      "properties": {
        "norad_id": 66905,
        "name": "STARLINK-36075",
        "group": "last-30-days",
        "lat": -46.77641300506079,
        "lon": -127.93881260742207,
        "alt_km": 420.05601308081623,
        "timestamp": "2025-12-27T18:38:02.205235+00:00",
        "meta_object_name": "STARLINK-36075",
        "meta_object_id": "2025-283AD",
        "meta_epoch": "2025-12-27T12:00:02.000160",
        "meta_mean_motion": 15.51833002,
        "meta_eccentricity": 0.0001304,
        "meta_inclination": 53.1599,
        "meta_ra_of_asc_node": 0.4744,
        "meta_arg_of_pericenter": 65.7013,
        "meta_mean_anomaly": 75.4459,
        "meta_ephemeris_type": 0,
        "meta_classification_type": "U",
        "meta_norad_cat_id": 66905,
        "meta_element_set_no": 999,
        "meta_rev_at_epoch": 480,
        "meta_bstar": -0.033563,
        "meta_mean_motion_dot": -0.01811322,
        "meta_mean_motion_ddot": 0,
        "tle_line1": "1 66905U 25283AD  25361.50002315 -.01811322  00000+0 -33563-1 0  9999",
        "tle_line2": "2 66905  53.1599   0.4744 0001304  65.7013  75.4459 15.51833002  4803"
      },
      "geometry": {
        "type": "Point",
        "coordinates": [
          -127.93881260742207,
          -46.77641300506079
        ]
      }
    }
  ]
}